SWARM A                 
1 39452U 13067B   26171.25215780  .00008775  00000+0  15048-3 0  9994
2 39452  87.3319  55.1028 0003050  96.4658 263.6950 15.51004366706727
SWARM C                 
1 39453U 13067C   26171.25204783  .00008812  00000+0  15113-3 0  9991
2 39453  87.3318  53.6839 0003057  96.4978 263.6632 15.51002649706686
BRITE-CA1 (TORONTO)     
1 40020U 14033L   26171.29911970  .00000560  00000+0  92021-4 0  9990
2 40020  97.9743 300.1697 0077213 266.8698  92.3673 14.72680408642673
OCO 2                   
1 40059U 14035A   26171.24561024  .00000288  00000+0  73958-4 0  9995
2 40059  98.2017 112.4921 0001511  84.8124 275.3247 14.57113336636494
BRITE-PL2 (HEWELIUSZ)   
1 40119U 14049B   26171.18506037  .00001715  00000+0  16362-3 0  9994
2 40119  97.9101 283.2081 0015380  99.5196 260.7763 14.94602935641896
MMS 1                   
1 40482U 15011A   26171.33336806 -.00000559  00000+0  00000+0 0  9993
2 40482  72.1478 348.7598 8320518 167.4734 259.5246  0.28322300  1398
MMS 2                   
1 40483U 15011B   26171.33336806 -.00000559  00000+0  00000+0 0  9994
2 40483  72.1477 348.7621 8321464 167.4792 259.5152  0.28322656  1390
MMS 3                   
1 40484U 15011C   26171.33336806 -.00000559  00000+0  00000+0 0  9995
2 40484  72.1514 348.7666 8320444 167.4712 259.5174  0.28319853  1390
MMS 4                   
1 40485U 15011D   26171.33336806 -.00000559  00000+0  00000+0 0  9996
2 40485  72.1474 348.7624 8320056 167.4790 259.5060  0.28319846  1391
ASTROSAT                
1 40930U 15052A   26171.05152111  .00001334  00000+0  80735-4 0  9999
2 40930   5.9956 134.7258 0007591  74.7193 285.3774 14.82511277580259
DAMPE                   
1 41173U 15078A   26171.30606594  .00000916  00000+0  33335-4 0  9993
2 41173  97.4556 176.7887 0013713  67.5189 292.7502 15.30791956585022
PISAT                   
1 41784U 16059B   26170.93675114  .00000626  00000+0  11424-3 0  9995
2 41784  97.8178 171.2714 0028602 193.8263 166.2163 14.68987180520148
HXMT (HUIYAN)           
1 42758U 17034A   26171.29170100  .00002218  00000+0  11598-3 0  9997
2 42758  43.0125 165.7537 0031004 167.1425 193.0221 15.18491409498136
FLYING LAPTOP           
1 42831U 17042G   26171.31841877  .00002502  00000+0  19893-3 0  9999
2 42831  97.4705 326.7303 0019726 111.7060 248.6267 15.01161888486920
ZHANGHENG 1-01 (CSES-1) 
1 43194U 18015C   26171.29717494  .00005590  00000+0  25560-3 0  9995
2 43194  97.6878 337.0161 0017102 254.7229 105.2116 15.20843843465112
SALSAT                  
1 46495U 20068K   26170.95810387  .00006379  00000+0  22355-3 0  9995
2 46495  97.8854 174.1914 0007892 296.5001  63.5428 15.29832652315782
IXPE                    
1 49954U 21121A   26171.33336806  .00008979  00000+0  47736-3 0  9999
2 49954   0.2300 294.1805 0006995 123.1422  64.0471 15.10273305  5443
SMILE                   
1 69123U 26109A   26158.38327019 -.00000041  00000+0 -36778-3 0  9994
2 69123  69.9787 209.3069 3310191 288.5544  45.7342  7.54049028  2480
