OBJECT_NAME,OBJECT_ID,EPOCH,MEAN_MOTION,ECCENTRICITY,INCLINATION,RA_OF_ASC_NODE,ARG_OF_PERICENTER,MEAN_ANOMALY,EPHEMERIS_TYPE,CLASSIFICATION_TYPE,NORAD_CAT_ID,ELEMENT_SET_NO,REV_AT_EPOCH,BSTAR,MEAN_MOTION_DOT,MEAN_MOTION_DDOT
SWARM A,2013-067B,2026-06-20T06:03:06.433920,15.51004366,.00030503,87.3319,55.1028,96.4658,263.6950,0,U,39452,999,70672,.15047931E-3,.8775E-4,0
SWARM C,2013-067C,2026-06-20T06:02:56.932512,15.51002649,.00030576,87.3318,53.6839,96.4978,263.6632,0,U,39453,999,70668,.15112846E-3,.8812E-4,0
BRITE-CA1 (TORONTO),2014-033L,2026-06-20T07:10:43.942080,14.72680408,.0077213,97.9743,300.1697,266.8698,92.3673,0,U,40020,999,64267,.9202094E-4,.56E-5,0
OCO 2,2014-035A,2026-06-20T05:53:40.724736,14.57113336,.00015114,98.2017,112.4921,84.8124,275.3247,0,U,40059,999,63649,.73958495E-4,.288E-5,0
BRITE-PL2 (HEWELIUSZ),2014-049B,2026-06-20T04:26:29.215968,14.94602935,.00153805,97.9101,283.2081,99.5196,260.7763,0,U,40119,999,64189,.163623E-3,.1715E-4,0
MMS 1,2015-011A,2026-06-20T08:00:03.000384,0.28322300,.83205188,72.1478,348.7598,167.4734,259.5246,0,U,40482,999,139,0,-.559E-5,0
MMS 2,2015-011B,2026-06-20T08:00:03.000384,0.28322656,.83214643,72.1477,348.7621,167.4792,259.5152,0,U,40483,999,139,0,-.559E-5,0
MMS 3,2015-011C,2026-06-20T08:00:03.000384,0.28319853,.83204448,72.1514,348.7666,167.4712,259.5174,0,U,40484,999,139,0,-.559E-5,0
MMS 4,2015-011D,2026-06-20T08:00:03.000384,0.28319846,.83200568,72.1474,348.7624,167.4790,259.5060,0,U,40485,999,139,0,-.559E-5,0
ASTROSAT,2015-052A,2026-06-20T01:14:11.423904,14.82511277,.00075913,5.9956,134.7258,74.7193,285.3774,0,U,40930,999,58025,.80734889E-4,.1334E-4,0
DAMPE,2015-078A,2026-06-20T07:20:44.097216,15.30791956,.00137133,97.4556,176.7887,67.5189,292.7502,0,U,41173,999,58502,.33334822E-4,.916E-5,0
PISAT,2016-059B,2026-06-19T22:28:55.298496,14.68987180,.00286022,97.8178,171.2714,193.8263,166.2163,0,U,41784,999,52014,.11424271E-3,.626E-5,0
HXMT (HUIYAN),2017-034A,2026-06-20T07:00:02.966400,15.18491409,.00310043,43.0125,165.7537,167.1425,193.0221,0,U,42758,999,49813,.11597546E-3,.2218E-4,0
FLYING LAPTOP,2017-042G,2026-06-20T07:38:31.381728,15.01161888,.00197262,97.4705,326.7303,111.7060,248.6267,0,U,42831,999,48692,.19892839E-3,.2502E-4,0
ZHANGHENG 1-01 (CSES-1),2018-015C,2026-06-20T07:07:55.914816,15.20843843,.0017102,97.6878,337.0161,254.7229,105.2116,0,U,43194,999,46511,.25559616E-3,.559E-4,0
SALSAT,2020-068K,2026-06-19T22:59:40.174368,15.29832652,.00078926,97.8854,174.1914,296.5001,63.5428,0,U,46495,999,31578,.22355472E-3,.6379E-4,0
IXPE,2021-121A,2026-06-20T08:00:03.000384,15.10273305,.00069951,0.2300,294.1805,123.1422,64.0471,0,U,49954,999,544,.47735998E-3,.8979E-4,0
SMILE,2026-109A,2026-06-07T09:11:54.544416,7.54049028,.3310191,69.9787,209.3069,288.5544,45.7342,0,U,69123,999,248,-.36778157E-3,-.41E-6,0
